COMMENT,ORIGINATOR,NORAD_CAT_ID,OBJECT_NAME,OBJECT_TYPE,CLASSIFICATION_TYPE,INTLDES,EPOCH,EPOCH_MICROSECONDS,MEAN_MOTION,ECCENTRICITY,INCLINATION,RA_OF_ASC_NODE,ARG_OF_PERICENTER,MEAN_ANOMALY,EPHEMERIS_TYPE,ELEMENT_SET_NO,REV_AT_EPOCH,BSTAR,MEAN_MOTION_DOT,MEAN_MOTION_DDOT,FILE,TLE_LINE0,TLE_LINE1,TLE_LINE2,OBJECT_ID,OBJECT_NUMBER,SEMIMAJOR_AXIS,PERIOD,APOGEE,PERIGEE,DECAYED
"GENERATED VIA SPACETRACK.ORG API","18 SPCS","55087","SPACEBEE-167","PAYLOAD","U","23001CG","2024-01-26 16:55:13","260576","15.30480799","0.0010668","97.4456","90.7395","302.7609","57.2603","0","999","5914","0.0010647","0.00031451","0","4172126","0 SPACEBEE-167","1 55087U 23001CG  24026.70501459  .00031451  00000-0  10647-2 0  9990","2 55087  97.4456  90.7395 0010668 302.7609  57.2603 15.30480799 59141","2023-001CG","55087","6852.514","94.088","481.689","467.069","0"
"GENERATED VIA SPACETRACK.ORG API","18 SPCS","55087","SPACEBEE-167","PAYLOAD","U","23001CG","2024-01-27 03:54:15","258240","15.30514449","0.0010638","97.4453","91.1982","301.0541","58.9655","0","999","5921","0.0012063","0.000357","0","4172745","0 SPACEBEE-167","1 55087U 23001CG  24027.16267660  .00035700  00000-0  12063-2 0  9999","2 55087  97.4453  91.1982 0010638 301.0541  58.9655 15.30514449 59212","2023-001CG","55087","6852.413","94.086","481.568","466.989","0"
"GENERATED VIA SPACETRACK.ORG API","18 SPCS","55087","SPACEBEE-167","PAYLOAD","U","23001CG","2024-01-27 16:27:25","164288","15.30545567","0.0010635","97.4451","91.7227","298.9501","61.0672","0","999","5929","0.0010139","0.0003","0","4172992","0 SPACEBEE-167","1 55087U 23001CG  24027.68570792  .00030000  00000-0  10139-2 0  9999","2 55087  97.4451  91.7227 0010635 298.9501  61.0672 15.30545567 59292","2023-001CG","55087","6852.320","94.084","481.473","466.898","0"
"GENERATED VIA SPACETRACK.ORG API","18 SPCS","55087","SPACEBEE-167","PAYLOAD","U","23001CG","2024-01-28 03:26:25","573056","15.30577015","0.0010651","97.4449","92.1815","297.1786","62.8369","0","999","5936","0.001193","0.00035373","0","4173278","0 SPACEBEE-167","1 55087U 23001CG  24028.14335154  .00035373  00000-0  11930-2 0  9990","2 55087  97.4449  92.1815 0010651 297.1786  62.8369 15.30577015 59364","2023-001CG","55087","6852.227","94.082","481.390","466.793","0"
"GENERATED VIA SPACETRACK.ORG API","18 SPCS","55087","SPACEBEE-167","PAYLOAD","U","23001CG","2024-01-28 09:42:59","801184","15.30586877","0.0010639","97.4447","92.4439","296.0989","63.9156","0","999","5940","0.0009805","0.00029043","0","4173554","0 SPACEBEE-167","1 55087U 23001CG  24028.40485881  .00029043  00000-0  98050-3 0  9998","2 55087  97.4447  92.4439 0010639 296.0989  63.9156 15.30586877 59403","2023-001CG","55087","6852.197","94.082","481.352","466.772","0"
"GENERATED VIA SPACETRACK.ORG API","18 SPCS","55087","SPACEBEE-167","PAYLOAD","U","23001CG","2024-01-28 17:33:42","255648","15.30607751","0.0010639","97.4447","92.7716","294.8462","65.1672","0","999","5945","0.0010277","0.0003047","0","4173804","0 SPACEBEE-167","1 55087U 23001CG  24028.73173907  .00030470  00000-0  10277-2 0  9997","2 55087  97.4447  92.7716 0010639 294.8462  65.1672 15.30607751 59453","2023-001CG","55087","6852.135","94.080","481.290","466.710","0"
"GENERATED VIA SPACETRACK.ORG API","18 SPCS","55087","SPACEBEE-167","PAYLOAD","U","23001CG","2024-01-28 17:33:42","255648","15.30607751","0.0010639","97.4447","92.7716","294.8462","65.1672","0","999","5945","0.0010277","0.0003047","0","4173840","0 SPACEBEE-167","1 55087U 23001CG  24028.73173907  .00030470  00000-0  10277-2 0  9997","2 55087  97.4447  92.7716 0010639 294.8462  65.1672 15.30607751 59453","2023-001CG","55087","6852.135","94.080","481.290","466.710","0"
"GENERATED VIA SPACETRACK.ORG API","18 SPCS","55087","SPACEBEE-167","PAYLOAD","U","23001CG","2024-01-29 02:58:32","684160","15.30634471","0.0010635","97.4446","93.1649","293.5413","66.471","0","999","5951","0.001132","0.00033612","0","4174567","0 SPACEBEE-167","1 55087U 23001CG  24029.12398940  .00033612  00000-0  11320-2 0  9998","2 55087  97.4446  93.1649 0010635 293.5413  66.4710 15.30634471 59513","2023-001CG","55087","6852.055","94.079","481.207","466.633","0"
"GENERATED VIA SPACETRACK.ORG API","18 SPCS","55087","SPACEBEE-167","PAYLOAD","U","23001CG","2024-01-30 04:04:44","398848","15.3070066","0.0010534","97.4444","94.214","289.4771","70.5331","0","999","5967","0.0010559","0.00031401","0","4174871","0 SPACEBEE-167","1 55087U 23001CG  24030.16995832  .00031401  00000-0  10559-2 0  9994","2 55087  97.4444  94.2140 0010534 289.4771  70.5331 15.30700660 59674","2023-001CG","55087","6851.858","94.075","480.940","466.505","0"
"GENERATED VIA SPACETRACK.ORG API","18 SPCS","55087","SPACEBEE-167","PAYLOAD","U","23001CG","2024-01-30 04:04:44","398848","15.3070066","0.0010534","97.4444","94.214","289.4771","70.5331","0","999","5967","0.0010559","0.00031401","0","4175201","0 SPACEBEE-167","1 55087U 23001CG  24030.16995832  .00031401  00000-0  10559-2 0  9994","2 55087  97.4444  94.2140 0010534 289.4771  70.5331 15.30700660 59674","2023-001CG","55087","6851.858","94.075","480.940","466.505","0"
"GENERATED VIA SPACETRACK.ORG API","18 SPCS","55087","SPACEBEE-167","PAYLOAD","U","23001CG","2024-01-30 18:11:56","767488","15.30737678","0.0010485","97.4441","94.804","286.9507","73.0584","0","999","5976","0.0010386","0.00030919","0","4175464","0 SPACEBEE-167","1 55087U 23001CG  24030.75829592  .00030919  00000-0  10386-2 0  9999","2 55087  97.4441  94.8040 0010485 286.9507  73.0584 15.30737678 59767","2023-001CG","55087","6851.747","94.072","480.796","466.428","0"
"GENERATED VIA SPACETRACK.ORG API","18 SPCS","55087","SPACEBEE-167","PAYLOAD","U","23001CG","2024-01-31 09:53:15","821088","15.30775344","0.0010498","97.4439","95.4596","284.4163","75.5912","0","999","5986","0.00098903","0.00029468","0","4176006","0 SPACEBEE-167","1 55087U 23001CG  24031.41198867  .00029468  00000-0  98903-3 0  9996","2 55087  97.4439  95.4596 0010498 284.4163  75.5912 15.30775344 59867","2023-001CG","55087","6851.635","94.070","480.693","466.307","0"
"GENERATED VIA SPACETRACK.ORG API","18 SPCS","55087","SPACEBEE-167","PAYLOAD","U","23001CG","2024-01-31 14:35:39","260256","15.30786916","0.0010493","97.4438","95.6563","283.5765","76.4307","0","999","5989","0.00094865","0.00028267","0","4176118","0 SPACEBEE-167","1 55087U 23001CG  24031.60809329  .00028267  00000-0  94865-3 0  9998","2 55087  97.4438  95.6563 0010493 283.5765  76.4307 15.30786916 59893","2023-001CG","55087","6851.600","94.069","480.655","466.276","0"
"GENERATED VIA SPACETRACK.ORG API","18 SPCS","55087","SPACEBEE-167","PAYLOAD","U","23001CG","2024-02-01 03:08:41","208000","15.30815489","0.0010475","97.4439","96.1806","280.9504","79.0558","0","999","5997","0.00096373","0.00028745","0","4176807","0 SPACEBEE-167","1 55087U 23001CG  24032.13103250  .00028745  00000-0  96373-3 0  9994","2 55087  97.4439  96.1806 0010475 280.9504  79.0558 15.30815489 59976","2023-001CG","55087","6851.515","94.068","480.557","466.203","0"
"GENERATED VIA SPACETRACK.ORG API","18 SPCS","55087","SPACEBEE-167","PAYLOAD","U","23001CG","2024-02-01 14:07:34","720320","15.30841403","0.0010435","97.4439","96.6396","278.8917","81.1142","0","999","6004","0.00097562","0.00029125","0","4177069","0 SPACEBEE-167","1 55087U 23001CG  24032.58859630  .00029125  00000-0  97562-3 0  9997","2 55087  97.4439  96.6396 0010435 278.8917  81.1142 15.30841403 60043","2023-001CG","55087","6851.438","94.066","480.452","466.153","0"
"GENERATED VIA SPACETRACK.ORG API","18 SPCS","55087","SPACEBEE-167","PAYLOAD","U","23001CG","2024-02-01 14:07:34","720320","15.30841403","0.0010435","97.4439","96.6396","278.8917","81.1142","0","999","6004","0.00097562","0.00029125","0","4177080","0 SPACEBEE-167","1 55087U 23001CG  24032.58859630  .00029125  00000-0  97562-3 0  9997","2 55087  97.4439  96.6396 0010435 278.8917  81.1142 15.30841403 60043","2023-001CG","55087","6851.438","94.066","480.452","466.153","0"
"GENERATED VIA SPACETRACK.ORG API","18 SPCS","55087","SPACEBEE-167","PAYLOAD","U","23001CG","2024-02-02 02:40:35","68800","15.30870837","0.0010404","97.444","97.1645","276.958","83.0477","0","999","6012","0.00098974","0.00029576","0","4177630","0 SPACEBEE-167","1 55087U 23001CG  24033.11151700  .00029576  00000-0  98974-3 0  9998","2 55087  97.4440  97.1645 0010404 276.9580  83.0477 15.30870837 60123","2023-001CG","55087","6851.350","94.064","480.343","466.087","0"
"GENERATED VIA SPACETRACK.ORG API","18 SPCS","55087","SPACEBEE-167","PAYLOAD","U","23001CG","2024-02-02 16:47:41","894880","15.30903043","0.0010382","97.4441","97.7545","274.4487","85.5568","0","999","6021","0.00090568","0.00027076","0","4177939","0 SPACEBEE-167","1 55087U 23001CG  24033.69979045  .00027076  00000-0  90568-3 0  9995","2 55087  97.4441  97.7545 0010382 274.4487  85.5568 15.30903043 60217","2023-001CG","55087","6851.254","94.062","480.232","466.006","0"
"GENERATED VIA SPACETRACK.ORG API","18 SPCS","55087","SPACEBEE-167","PAYLOAD","U","23001CG","2024-02-02 16:47:41","894880","15.30903043","0.0010382","97.4441","97.7545","274.4487","85.5568","0","999","6021","0.00090568","0.00027076","0","4177944","0 SPACEBEE-167","1 55087U 23001CG  24033.69979045  .00027076  00000-0  90568-3 0  9995","2 55087  97.4441  97.7545 0010382 274.4487  85.5568 15.30903043 60217","2023-001CG","55087","6851.254","94.062","480.232","466.006","0"
"GENERATED VIA SPACETRACK.ORG API","18 SPCS","55087","SPACEBEE-167","PAYLOAD","U","23001CG","2024-02-03 10:03:02","130624","15.3094096","0.0010389","97.444","98.4761","271.7919","88.2132","0","999","6032","0.00086932","0.00026013","0","4178485","0 SPACEBEE-167","1 55087U 23001CG  24034.41877466  .00026013  00000-0  86932-3 0  9990","2 55087  97.4440  98.4761 0010389 271.7919  88.2132 15.30940960 60329","2023-001CG","55087","6851.141","94.060","480.123","465.888","0"
